[{"OBJECT_NAME":"ONEWEB-0429","OBJECT_ID":"2021-132AH","EPOCH":"2026-03-09T17:06:28.930176","MEAN_MOTION":13.18686546,"ECCENTRICITY":0.00018486,"INCLINATION":87.9248,"RA_OF_ASC_NODE":355.2198,"ARG_OF_PERICENTER":82.9914,"MEAN_ANOMALY":277.1428,"EPHEMERIS_TYPE":0,"CLASSIFICATION_TYPE":"U","NORAD_CAT_ID":50500,"ELEMENT_SET_NO":999,"REV_AT_EPOCH":20847,"BSTAR":-6.1219241e-5,"MEAN_MOTION_DOT":-1.1e-7,"MEAN_MOTION_DDOT":0},{"OBJECT_NAME":"DELTA 1 DEB","OBJECT_ID":"1975-052D","EPOCH":"2026-03-09T17:27:07.449120","MEAN_MOTION":13.06702699,"ECCENTRICITY":0.02001592,"INCLINATION":99.8392,"RA_OF_ASC_NODE":115.1446,"ARG_OF_PERICENTER":167.5129,"MEAN_ANOMALY":312.2824,"EPHEMERIS_TYPE":0,"CLASSIFICATION_TYPE":"U","NORAD_CAT_ID":21268,"ELEMENT_SET_NO":999,"REV_AT_EPOCH":66079,"BSTAR":-0.00026706909,"MEAN_MOTION_DOT":-1.36e-6,"MEAN_MOTION_DDOT":0}]
